$$SOE
2459580.500000000, A.D. 2022-Jan-01 00:00:00.0000, 1.937517861832229E+08, 3.410531000184229E+08, -4.988054744951621E+06,
2459587.500000000, A.D. 2022-Jan-08 00:00:00.0000, 1.833634807680942E+08, 3.468955632626147E+08, -4.591443836783171E+06,
2459594.500000000, A.D. 2022-Jan-15 00:00:00.0000, 1.728278391873562E+08, 3.524593073066348E+08, -4.191143774878532E+06,
2459601.500000000, A.D. 2022-Jan-22 00:00:00.0000, 1.621535107318963E+08, 3.577402344790026E+08, -3.787480934335023E+06,
2459608.500000000, A.D. 2022-Jan-29 00:00:00.0000, 1.513492802470877E+08, 3.627345894638873E+08, -3.380784508977979E+06,
2459615.500000000, A.D. 2022-Feb-05 00:00:00.0000, 1.404240487299598E+08, 3.674389637550164E+08, -2.971385731442690E+06,
2459622.500000000, A.D. 2022-Feb-12 00:00:00.0000, 1.293868158894454E+08, 3.718502979387686E+08, -2.559617376633942E+06,
2459629.500000000, A.D. 2022-Feb-19 00:00:00.0000, 1.182466634327822E+08, 3.759658841683601E+08, -2.145813237017930E+06,
2459636.500000000, A.D. 2022-Feb-26 00:00:00.0000, 1.070127378504928E+08, 3.797833681049484E+08, -1.730307511641324E+06,
2459643.500000000, A.D. 2022-Mar-05 00:00:00.0000, 9.569423294174552E+07, 3.833007497173861E+08, -1.313434176917583E+06,
2459650.500000000, A.D. 2022-Mar-12 00:00:00.0000, 8.430037238332994E+07, 3.865163828916602E+08, -8.955263679317832E+05,
2459657.500000000, A.D. 2022-Mar-19 00:00:00.0000, 7.284039249239311E+07, 3.894289739018221E+08, -4.769157774417996E+05,
2459664.500000000, A.D. 2022-Mar-26 00:00:00.0000, 6.132352528117695E+07, 3.920375787667400E+08, -5.793207790613174E+04,
2459671.500000000, A.D. 2022-Apr-02 00:00:00.0000, 4.975898194342167E+07, 3.943415994731624E+08, 3.610976200965643E+05,
2459678.500000000, A.D. 2022-Apr-09 00:00:00.0000, 3.815593711168695E+07, 3.963407791120231E+08, 7.798492461640239E+05,
2459685.500000000, A.D. 2022-Apr-16 00:00:00.0000, 2.652351430499383E+07, 3.980351966303239E+08, 1.198002203631669E+06,
2459692.500000000, A.D. 2022-Apr-23 00:00:00.0000, 1.487077135667437E+07, 3.994252623361020E+08, 1.615239961268336E+06,
2459699.500000000, A.D. 2022-Apr-30 00:00:00.0000, 3.206684006097124E+06, 4.005117119628772E+08, 2.031250789465278E+06,
2459706.500000000, A.D. 2022-May-07 00:00:00.0000, -8.459869240384279E+06, 4.012955973747188E+08, 2.445728197879583E+06,
2459713.500000000, A.D. 2022-May-14 00:00:00.0000, -2.012011955148808E+07, 4.017782770157476E+08, 2.858371194203705E+06,
2459720.500000000, A.D. 2022-May-21 00:00:00.0000, -3.176541951066758E+07, 4.019614069269788E+08, 3.268884611149043E+06,
2459727.500000000, A.D. 2022-May-28 00:00:00.0000, -4.338725460361044E+07, 4.018469314336091E+08, 3.676979466604561E+06,
2459734.500000000, A.D. 2022-Jun-04 00:00:00.0000, -5.497725415488708E+07, 4.014370732534811E+08, 4.082373305669516E+06,
2459741.500000000, A.D. 2022-Jun-11 00:00:00.0000, -6.652720155311795E+07, 4.007343230932822E+08, 4.484790511314392E+06,
2459748.500000000, A.D. 2022-Jun-18 00:00:00.0000, -7.802904371546441E+07, 3.997414288097489E+08, 4.883962581243187E+06,
2459755.500000000, A.D. 2022-Jun-25 00:00:00.0000, -8.947489975685754E+07, 3.984613841656165E+08, 5.279628365786999E+06,
2459762.500000000, A.D. 2022-Jul-02 00:00:00.0000, -1.008570687299700E+08, 3.968974171758844E+08, 5.671534249611974E+06,
2459769.500000000, A.D. 2022-Jul-09 00:00:00.0000, -1.121680360508623E+08, 3.950529782808100E+08, 6.059434256558836E+06,
2459776.500000000, A.D. 2022-Jul-16 00:00:00.0000, -1.234004786758067E+08, 3.929317294867001E+08, 6.443090171944946E+06,
2459783.500000000, A.D. 2022-Jul-23 00:00:00.0000, -1.345472712409697E+08, 3.905375346094710E+08, 6.822271891083598E+06,
2459790.500000000, A.D. 2022-Jul-30 00:00:00.0000, -1.456014930952348E+08, 3.878744473174855E+08, 7.196757713275671E+06,
2459797.500000000, A.D. 2022-Aug-06 00:00:00.0000, -1.565564326489720E+08, 3.849466976669356E+08, 7.566334305699974E+06,
2459804.500000000, A.D. 2022-Aug-13 00:00:00.0000, -1.674055898877576E+08, 3.817586799331670E+08, 7.930796639013022E+06,
2459811.500000000, A.D. 2022-Aug-20 00:00:00.0000, -1.781426786439376E+08, 3.783149412793601E+08, 8.289947998548806E+06,
2459818.500000000, A.D. 2022-Aug-27 00:00:00.0000, -1.887616285827281E+08, 3.746201705729244E+08, 8.643600006839693E+06,
2459825.500000000, A.D. 2022-Sep-03 00:00:00.0000, -1.992565866828110E+08, 3.706791872709526E+08, 8.991572627134591E+06,
2459832.500000000, A.D. 2022-Sep-10 00:00:00.0000, -2.096219181524288E+08, 3.664969304269744E+08, 9.333694143096372E+06,
2459839.500000000, A.D. 2022-Sep-17 00:00:00.0000, -2.198522067857648E+08, 3.620784478436515E+08, 9.669801113323897E+06,
2459846.500000000, A.D. 2022-Sep-24 00:00:00.0000, -2.299422547349994E+08, 3.574288853461637E+08, 9.999738292391688E+06,
2459853.500000000, A.D. 2022-Oct-01 00:00:00.0000, -2.398870814934643E+08, 3.525534761782066E+08, 1.032335849579255E+07,
2459860.500000000, A.D. 2022-Oct-08 00:00:00.0000, -2.496819217167619E+08, 3.474575310637941E+08, 1.064052241515660E+07,
2459867.500000000, A.D. 2022-Oct-15 00:00:00.0000, -2.593222228475145E+08, 3.421464301517734E+08, 1.095109856813979E+07,
2459874.500000000, A.D. 2022-Oct-22 00:00:00.0000, -2.688036447579831E+08, 3.366256151744416E+08, 1.125496344625968E+07,
2459881.500000000, A.D. 2022-Oct-29 00:00:00.0000, -2.781220589417405E+08, 3.309005792359201E+08, 1.155200142055103E+07,
2459888.500000000, A.D. 2022-Nov-05 00:00:00.0000, -2.872735451860718E+08, 3.249768569746642E+08, 1.184210443758562E+07,
2459895.500000000, A.D. 2022-Nov-12 00:00:00.0000, -2.962543877237657E+08, 3.188600163726087E+08, 1.212517179046763E+07,
2459902.500000000, A.D. 2022-Nov-19 00:00:00.0000, -3.050610716142174E+08, 3.125556512613956E+08, 1.240110995359425E+07,
2459909.500000000, A.D. 2022-Nov-26 00:00:00.0000, -3.136902791199493E+08, 3.060693741290547E+08, 1.266983242555912E+07,
2459916.500000000, A.D. 2022-Dec-03 00:00:00.0000, -3.221388859402421E+08, 2.994068092140409E+08, 1.293125956494886E+07,
2459923.500000000, A.D. 2022-Dec-10 00:00:00.0000, -3.304039572831790E+08, 2.925735859023911E+08, 1.318531841727950E+07,
2459930.500000000, A.D. 2022-Dec-17 00:00:00.0000, -3.384827437769665E+08, 2.855753323987939E+08, 1.343194252963804E+07,
2459937.500000000, A.D. 2022-Dec-24 00:00:00.0000, -3.463726771353280E+08, 2.784176696002515E+08, 1.367107173846711E+07,
2459944.500000000, A.D. 2022-Dec-31 00:00:00.0000, -3.540713652420669E+08, 2.711062052730848E+08, 1.390265190730481E+07,
2459951.500000000, A.D. 2023-Jan-07 00:00:00.0000, -3.615765865536656E+08, 2.636465294877020E+08, 1.412663468265755E+07,
2459958.500000000, A.D. 2023-Jan-14 00:00:00.0000, -3.688862858082645E+08, 2.560442117996409E+08, 1.434297748973303E+07,
2459965.500000000, A.D. 2023-Jan-21 00:00:00.0000, -3.759985717055073E+08, 2.483047969969130E+08, 1.455164356853630E+07,
2459972.500000000, A.D. 2023-Jan-28 00:00:00.0000, -3.829117129041536E+08, 2.404337992088154E+08, 1.475260169863325E+07,
2459979.500000000, A.D. 2023-Feb-04 00:00:00.0000, -3.896241325604007E+08, 2.324366973913320E+08, 1.494582587980767E+07,
2459986.500000000, A.D. 2023-Feb-11 00:00:00.0000, -3.961344032183518E+08, 2.243189319845491E+08, 1.513129511791402E+07,
2459993.500000000, A.D. 2023-Feb-18 00:00:00.0000, -4.024412421295821E+08, 2.160859019090496E+08, 1.530899325488019E+07,
2460000.500000000, A.D. 2023-Feb-25 00:00:00.0000, -4.085435067501276E+08, 2.077429617283235E+08, 1.547890880599393E+07,
2460007.500000000, A.D. 2023-Mar-04 00:00:00.0000, -4.144401903229439E+08, 1.992954189838802E+08, 1.564103479708229E+07,
2460014.500000000, A.D. 2023-Mar-11 00:00:00.0000, -4.201304175270981E+08, 1.907485316913139E+08, 1.579536859945439E+07,
2460021.500000000, A.D. 2023-Mar-18 00:00:00.0000, -4.256134401560925E+08, 1.821075059358923E+08, 1.594191175472397E+07,
2460028.500000000, A.D. 2023-Mar-25 00:00:00.0000, -4.308886326308046E+08, 1.733774935089979E+08, 1.608066976750640E+07,
2460035.500000000, A.D. 2023-Apr-01 00:00:00.0000, -4.359554869303638E+08, 1.645635899677668E+08, 1.621165185968746E+07,
2460042.500000000, A.D. 2023-Apr-08 00:00:00.0000, -4.408136075634078E+08, 1.556708343320224E+08, 1.633487084323817E+07,
2460049.500000000, A.D. 2023-Apr-15 00:00:00.0000, -4.454627089239576E+08, 1.467042093021016E+08, 1.645034323584070E+07,
2460056.500000000, A.D. 2023-Apr-22 00:00:00.0000, -4.499026132287701E+08, 1.376686389371177E+08, 1.655808920421574E+07,
2460063.500000000, A.D. 2023-Apr-29 00:00:00.0000, -4.541332463029085E+08, 1.285689860377069E+08, 1.665813226861186E+07,
2460070.500000000, A.D. 2023-May-06 00:00:00.0000, -4.581546329744714E+08, 1.194100510035472E+08, 1.675049907549110E+07,
2460077.500000000, A.D. 2023-May-13 00:00:00.0000, -4.619668930573487E+08, 1.101965712616542E+08, 1.683521925481524E+07,
2460084.500000000, A.D. 2023-May-20 00:00:00.0000, -4.655702376892364E+08, 1.009332207645914E+08, 1.691232530012322E+07,
2460091.500000000, A.D. 2023-May-27 00:00:00.0000, -4.689649658322358E+08, 9.162460951893739E+07, 1.698185245102794E+07,
2460098.500000000, A.D. 2023-Jun-03 00:00:00.0000, -4.721514608800317E+08, 8.227528315984786E+07, 1.704383857471136E+07,
2460105.500000000, A.D. 2023-Jun-10 00:00:00.0000, -4.751301873501499E+08, 7.288972254890898E+07, 1.709832404282171E+07,
2460112.500000000, A.D. 2023-Jun-17 00:00:00.0000, -4.779016875742062E+08, 6.347234332747614E+07, 1.714535159040274E+07,
2460119.500000000, A.D. 2023-Jun-24 00:00:00.0000, -4.804665780669476E+08, 5.402749547424643E+07, 1.718496613176838E+07,
2460126.500000000, A.D. 2023-Jul-01 00:00:00.0000, -4.828255453204234E+08, 4.455946368843706E+07, 1.721721457751805E+07,
2460133.500000000, A.D. 2023-Jul-08 00:00:00.0000, -4.849793426961700E+08, 3.507246941352416E+07, 1.724214587315156E+07,
2460140.500000000, A.D. 2023-Jul-15 00:00:00.0000, -4.869287896919667E+08, 2.557067166475848E+07, 1.725981114490017E+07,
2460147.500000000, A.D. 2023-Jul-22 00:00:00.0000, -4.886747700613534E+08, 1.605816562042401E+07, 1.727026354513014E+07,
$$EOE